CCSDS_OMM_VERS = 2.0
CREATION_DATE  = 
ORIGINATOR     = 

OBJECT_NAME    = STARLINK-35920
OBJECT_ID      = 2025-271G
CENTER_NAME    = EARTH
REF_FRAME      = TEME
TIME_SYSTEM    = UTC
MEAN_ELEMENT_THEORY = SGP/SGP4

EPOCH          = 2025-12-09T20:00:01.999008
MEAN_MOTION    = 15.62632987
ECCENTRICITY   = .0000794
INCLINATION    = 53.1594
RA_OF_ASC_NODE = 201.2453
ARG_OF_PERICENTER = 95.5720
MEAN_ANOMALY   = 274.4034

EPHEMERIS_TYPE = 0
CLASSIFICATION_TYPE = U
NORAD_CAT_ID   = 66623
ELEMENT_SET_NO = 999
REV_AT_EPOCH   = 377
BSTAR          = -.25439E-1
MEAN_MOTION_DOT = -.2032837E-1
MEAN_MOTION_DDOT = 0

CCSDS_OMM_VERS = 2.0
CREATION_DATE  = 
ORIGINATOR     = 

OBJECT_NAME    = STARLINK-35927
OBJECT_ID      = 2025-271H
CENTER_NAME    = EARTH
REF_FRAME      = TEME
TIME_SYSTEM    = UTC
MEAN_ELEMENT_THEORY = SGP/SGP4

EPOCH          = 2025-12-09T20:00:01.999008
MEAN_MOTION    = 15.62626350
ECCENTRICITY   = .0000702
INCLINATION    = 53.1593
RA_OF_ASC_NODE = 201.2501
ARG_OF_PERICENTER = 94.7037
MEAN_ANOMALY   = 273.3556

EPHEMERIS_TYPE = 0
CLASSIFICATION_TYPE = U
NORAD_CAT_ID   = 66624
ELEMENT_SET_NO = 999
REV_AT_EPOCH   = 377
BSTAR          = -.25302E-1
MEAN_MOTION_DOT = -.2022674E-1
MEAN_MOTION_DDOT = 0

CCSDS_OMM_VERS = 2.0
CREATION_DATE  = 
ORIGINATOR     = 

OBJECT_NAME    = STARLINK-35929
OBJECT_ID      = 2025-271J
CENTER_NAME    = EARTH
REF_FRAME      = TEME
TIME_SYSTEM    = UTC
MEAN_ELEMENT_THEORY = SGP/SGP4

EPOCH          = 2025-12-09T20:00:01.999008
MEAN_MOTION    = 15.62635833
ECCENTRICITY   = .000087
INCLINATION    = 53.1594
RA_OF_ASC_NODE = 201.2408
ARG_OF_PERICENTER = 101.4515
MEAN_ANOMALY   = 270.4393

EPHEMERIS_TYPE = 0
CLASSIFICATION_TYPE = U
NORAD_CAT_ID   = 66625
ELEMENT_SET_NO = 999
REV_AT_EPOCH   = 377
BSTAR          = -.25498E-1
MEAN_MOTION_DOT = -.2037198E-1
MEAN_MOTION_DDOT = 0

CCSDS_OMM_VERS = 2.0
CREATION_DATE  = 
ORIGINATOR     = 

OBJECT_NAME    = STARLINK-35902
OBJECT_ID      = 2025-271K
CENTER_NAME    = EARTH
REF_FRAME      = TEME
TIME_SYSTEM    = UTC
MEAN_ELEMENT_THEORY = SGP/SGP4

EPOCH          = 2025-12-09T20:00:01.999008
MEAN_MOTION    = 15.62632434
ECCENTRICITY   = .000077
INCLINATION    = 53.1595
RA_OF_ASC_NODE = 201.2375
ARG_OF_PERICENTER = 97.1352
MEAN_ANOMALY   = 276.6721

EPHEMERIS_TYPE = 0
CLASSIFICATION_TYPE = U
NORAD_CAT_ID   = 66626
ELEMENT_SET_NO = 999
REV_AT_EPOCH   = 377
BSTAR          = -.25406E-1
MEAN_MOTION_DOT = -.2030481E-1
MEAN_MOTION_DDOT = 0

CCSDS_OMM_VERS = 2.0
CREATION_DATE  = 
ORIGINATOR     = 

OBJECT_NAME    = STARLINK-35904
OBJECT_ID      = 2025-271L
CENTER_NAME    = EARTH
REF_FRAME      = TEME
TIME_SYSTEM    = UTC
MEAN_ELEMENT_THEORY = SGP/SGP4

EPOCH          = 2025-12-09T20:00:01.999008
MEAN_MOTION    = 15.62627934
ECCENTRICITY   = .0000778
INCLINATION    = 53.1596
RA_OF_ASC_NODE = 201.2333
ARG_OF_PERICENTER = 99.0903
MEAN_ANOMALY   = 276.6381

EPHEMERIS_TYPE = 0
CLASSIFICATION_TYPE = U
NORAD_CAT_ID   = 66627
ELEMENT_SET_NO = 999
REV_AT_EPOCH   = 361
BSTAR          = -.25365E-1
MEAN_MOTION_DOT = -.2027256E-1
MEAN_MOTION_DDOT = 0

CCSDS_OMM_VERS = 2.0
CREATION_DATE  = 
ORIGINATOR     = 

OBJECT_NAME    = STARLINK-35862
OBJECT_ID      = 2025-271M
CENTER_NAME    = EARTH
REF_FRAME      = TEME
TIME_SYSTEM    = UTC
MEAN_ELEMENT_THEORY = SGP/SGP4

EPOCH          = 2025-12-09T20:00:01.999008
MEAN_MOTION    = 15.62632058
ECCENTRICITY   = .0000809
INCLINATION    = 53.1595
RA_OF_ASC_NODE = 201.2294
ARG_OF_PERICENTER = 101.8574
MEAN_ANOMALY   = 275.7861

EPHEMERIS_TYPE = 0
CLASSIFICATION_TYPE = U
NORAD_CAT_ID   = 66628
ELEMENT_SET_NO = 999
REV_AT_EPOCH   = 377
BSTAR          = -.25444E-1
MEAN_MOTION_DOT = -.2033117E-1
MEAN_MOTION_DDOT = 0

CCSDS_OMM_VERS = 2.0
CREATION_DATE  = 
ORIGINATOR     = 

OBJECT_NAME    = STARLINK-35956
OBJECT_ID      = 2025-271N
CENTER_NAME    = EARTH
REF_FRAME      = TEME
TIME_SYSTEM    = UTC
MEAN_ELEMENT_THEORY = SGP/SGP4

EPOCH          = 2025-12-09T20:00:01.999008
MEAN_MOTION    = 15.62630148
ECCENTRICITY   = .0000875
INCLINATION    = 53.1594
RA_OF_ASC_NODE = 201.2256
ARG_OF_PERICENTER = 98.6641
MEAN_ANOMALY   = 280.8950

EPHEMERIS_TYPE = 0
CLASSIFICATION_TYPE = U
NORAD_CAT_ID   = 66629
ELEMENT_SET_NO = 999
REV_AT_EPOCH   = 377
BSTAR          = -.25366E-1
MEAN_MOTION_DOT = -.20276E-1
MEAN_MOTION_DDOT = 0

CCSDS_OMM_VERS = 2.0
CREATION_DATE  = 
ORIGINATOR     = 

OBJECT_NAME    = STARLINK-35949
OBJECT_ID      = 2025-271P
CENTER_NAME    = EARTH
REF_FRAME      = TEME
TIME_SYSTEM    = UTC
MEAN_ELEMENT_THEORY = SGP/SGP4

EPOCH          = 2025-12-09T20:00:01.999008
MEAN_MOTION    = 15.62631061
ECCENTRICITY   = .0000782
INCLINATION    = 53.1596
RA_OF_ASC_NODE = 201.2208
ARG_OF_PERICENTER = 97.9965
MEAN_ANOMALY   = 283.4796

EPHEMERIS_TYPE = 0
CLASSIFICATION_TYPE = U
NORAD_CAT_ID   = 66630
ELEMENT_SET_NO = 999
REV_AT_EPOCH   = 377
BSTAR          = -.25399E-1
MEAN_MOTION_DOT = -.2029887E-1
MEAN_MOTION_DDOT = 0

CCSDS_OMM_VERS = 2.0
CREATION_DATE  = 
ORIGINATOR     = 

OBJECT_NAME    = STARLINK-35965
OBJECT_ID      = 2025-271Q
CENTER_NAME    = EARTH
REF_FRAME      = TEME
TIME_SYSTEM    = UTC
MEAN_ELEMENT_THEORY = SGP/SGP4

EPOCH          = 2025-12-09T20:00:01.999008
MEAN_MOTION    = 15.62629064
ECCENTRICITY   = .0000753
INCLINATION    = 53.1594
RA_OF_ASC_NODE = 201.2175
ARG_OF_PERICENTER = 99.7536
MEAN_ANOMALY   = 283.6396

EPHEMERIS_TYPE = 0
CLASSIFICATION_TYPE = U
NORAD_CAT_ID   = 66631
ELEMENT_SET_NO = 999
REV_AT_EPOCH   = 377
BSTAR          = -.25358E-1
MEAN_MOTION_DOT = -.2026827E-1
MEAN_MOTION_DDOT = 0

CCSDS_OMM_VERS = 2.0
CREATION_DATE  = 
ORIGINATOR     = 

OBJECT_NAME    = STARLINK-35973
OBJECT_ID      = 2025-271R
CENTER_NAME    = EARTH
REF_FRAME      = TEME
TIME_SYSTEM    = UTC
MEAN_ELEMENT_THEORY = SGP/SGP4

EPOCH          = 2025-12-09T20:00:01.999008
MEAN_MOTION    = 15.62635269
ECCENTRICITY   = .0000814
INCLINATION    = 53.1596
RA_OF_ASC_NODE = 201.2134
ARG_OF_PERICENTER = 89.2801
MEAN_ANOMALY   = 296.0245

EPHEMERIS_TYPE = 0
CLASSIFICATION_TYPE = U
NORAD_CAT_ID   = 66632
ELEMENT_SET_NO = 999
REV_AT_EPOCH   = 371
BSTAR          = -.25414E-1
MEAN_MOTION_DOT = -.2031228E-1
MEAN_MOTION_DDOT = 0

CCSDS_OMM_VERS = 2.0
CREATION_DATE  = 
ORIGINATOR     = 

OBJECT_NAME    = STARLINK-35948
OBJECT_ID      = 2025-271S
CENTER_NAME    = EARTH
REF_FRAME      = TEME
TIME_SYSTEM    = UTC
MEAN_ELEMENT_THEORY = SGP/SGP4

EPOCH          = 2025-12-09T20:00:01.999008
MEAN_MOTION    = 15.62627642
ECCENTRICITY   = .0000819
INCLINATION    = 53.1593
RA_OF_ASC_NODE = 201.2083
ARG_OF_PERICENTER = 96.1170
MEAN_ANOMALY   = 291.1087

EPHEMERIS_TYPE = 0
CLASSIFICATION_TYPE = U
NORAD_CAT_ID   = 66633
ELEMENT_SET_NO = 999
REV_AT_EPOCH   = 377
BSTAR          = -.25302E-1
MEAN_MOTION_DOT = -.2022845E-1
MEAN_MOTION_DDOT = 0

CCSDS_OMM_VERS = 2.0
CREATION_DATE  = 
ORIGINATOR     = 

OBJECT_NAME    = STARLINK-35967
OBJECT_ID      = 2025-271T
CENTER_NAME    = EARTH
REF_FRAME      = TEME
TIME_SYSTEM    = UTC
MEAN_ELEMENT_THEORY = SGP/SGP4

EPOCH          = 2025-12-09T20:00:01.999008
MEAN_MOTION    = 15.62627634
ECCENTRICITY   = .0000868
INCLINATION    = 53.1595
RA_OF_ASC_NODE = 201.2041
ARG_OF_PERICENTER = 96.9974
MEAN_ANOMALY   = 292.1483

EPHEMERIS_TYPE = 0
CLASSIFICATION_TYPE = U
NORAD_CAT_ID   = 66634
ELEMENT_SET_NO = 999
REV_AT_EPOCH   = 370
BSTAR          = -.25345E-1
MEAN_MOTION_DOT = -.2025905E-1
MEAN_MOTION_DDOT = 0

