STARLINK-35920          
1 66623U 25271G   25343.83335647 -.02032837  00000+0 -25439-1 0  9996
2 66623  53.1594 201.2453 0000794  95.5720 274.4034 15.62632987  3777
STARLINK-35927          
1 66624U 25271H   25343.83335647 -.02022674  00000+0 -25302-1 0  9994
2 66624  53.1593 201.2501 0000702  94.7037 273.3556 15.62626350  3776
STARLINK-35929          
1 66625U 25271J   25343.83335647 -.02037198  00000+0 -25498-1 0  9998
2 66625  53.1594 201.2408 0000870 101.4515 270.4393 15.62635833  3770
STARLINK-35902          
1 66626U 25271K   25343.83335647 -.02030481  00000+0 -25406-1 0  9996
2 66626  53.1595 201.2375 0000770  97.1352 276.6721 15.62632434  3771
STARLINK-35904          
1 66627U 25271L   25343.83335647 -.02027256  00000+0 -25365-1 0  9997
2 66627  53.1596 201.2333 0000778  99.0903 276.6381 15.62627934  3612
STARLINK-35862          
1 66628U 25271M   25343.83335647 -.02033117  00000+0 -25444-1 0  9999
2 66628  53.1595 201.2294 0000809 101.8574 275.7861 15.62632058  3772
STARLINK-35956          
1 66629U 25271N   25343.83335647 -.02027600  00000+0 -25366-1 0  9993
2 66629  53.1594 201.2256 0000875  98.6641 280.8950 15.62630148  3775
STARLINK-35949          
1 66630U 25271P   25343.83335647 -.02029887  00000+0 -25399-1 0  9990
2 66630  53.1596 201.2208 0000782  97.9965 283.4796 15.62631061  3776
STARLINK-35965          
1 66631U 25271Q   25343.83335647 -.02026827  00000+0 -25358-1 0  9997
2 66631  53.1594 201.2175 0000753  99.7536 283.6396 15.62629064  3778
STARLINK-35973          
1 66632U 25271R   25343.83335647 -.02031228  00000+0 -25414-1 0  9992
2 66632  53.1596 201.2134 0000814  89.2801 296.0245 15.62635269  3712
STARLINK-35948          
1 66633U 25271S   25343.83335647 -.02022845  00000+0 -25302-1 0  9994
2 66633  53.1593 201.2083 0000819  96.1170 291.1087 15.62627642  3776
STARLINK-35967          
1 66634U 25271T   25343.83335647 -.02025905  00000+0 -25345-1 0  9992
2 66634  53.1595 201.2041 0000868  96.9974 292.1483 15.62627634  3702
